[{"OBJECT_NAME":"STARLINK-31865","OBJECT_ID":"2024-093K","EPOCH":"2026-03-09T09:49:12.913536","MEAN_MOTION":15.27566521,"ECCENTRICITY":4.697e-5,"INCLINATION":42.9992,"RA_OF_ASC_NODE":210.3825,"ARG_OF_PERICENTER":238.9678,"MEAN_ANOMALY":121.1128,"EPHEMERIS_TYPE":0,"CLASSIFICATION_TYPE":"U","NORAD_CAT_ID":59791,"ELEMENT_SET_NO":999,"REV_AT_EPOCH":10265,"BSTAR":9.1818926e-5,"MEAN_MOTION_DOT":2.265e-5,"MEAN_MOTION_DDOT":0},{"OBJECT_NAME":"SIMSAT 1","OBJECT_ID":"2000-026A","EPOCH":"2026-03-09T17:22:54.646176","MEAN_MOTION":15.27666538,"ECCENTRICITY":0.00084816,"INCLINATION":86.3501,"RA_OF_ASC_NODE":180.5413,"ARG_OF_PERICENTER":14.8337,"MEAN_ANOMALY":345.3157,"EPHEMERIS_TYPE":0,"CLASSIFICATION_TYPE":"U","NORAD_CAT_ID":26365,"ELEMENT_SET_NO":999,"REV_AT_EPOCH":42720,"BSTAR":0.00013499313,"MEAN_MOTION_DOT":3.69e-5,"MEAN_MOTION_DDOT":0}]
